OBJECT_NAME,OBJECT_ID,EPOCH,MEAN_MOTION,ECCENTRICITY,INCLINATION,RA_OF_ASC_NODE,ARG_OF_PERICENTER,MEAN_ANOMALY,EPHEMERIS_TYPE,CLASSIFICATION_TYPE,NORAD_CAT_ID,ELEMENT_SET_NO,REV_AT_EPOCH,BSTAR,MEAN_MOTION_DOT,MEAN_MOTION_DDOT
COSMO-SKYMED 1,2007-023A,2026-06-17T19:16:52.222080,14.97101711,.0001343,97.8848,0.6641,98.6097,261.5277,0,U,31598,999,2988,.19457E-3,.2185E-4,0
COSMOS 2428,2007-029A,2026-06-17T18:44:25.547136,14.12928068,.0007128,70.9369,353.2311,133.8717,226.2994,0,U,31792,999,97823,-.32006E-4,-.108E-5,0
SL-16 R/B,2007-029B,2026-06-17T19:48:20.760192,14.14855285,.0002341,70.9769,321.8866,261.9057,203.9573,0,U,31793,999,97953,.6396E-4,.76E-6,0
KORONAS-FOTON,2009-003A,2026-06-17T11:12:21.316896,15.45726740,.00117181,82.4284,171.9677,146.5296,213.6696,0,U,33504,999,96114,.17543679E-3,.8536E-4,0
CZ-2C R/B,2011-030B,2026-06-17T18:48:56.289312,14.81472781,.0053013,97.8655,124.1593,26.0579,35.4235,0,U,37731,999,80491,.13425E-3,.1022E-4,0
H-2A R/B,2012-025E,2026-06-17T19:49:17.702112,14.95724052,.004358,98.4832,144.0242,347.2414,12.7698,0,U,38341,999,76318,.21322E-3,.2349E-4,0
SHIJIAN-16 (SJ-16),2013-057A,2026-06-17T20:13:24.351744,14.92605658,.0016797,74.9726,355.4416,229.3350,130.6379,0,U,39358,999,68644,.38417E-4,.367E-5,0
SL-4 R/B,2014-021B,2026-06-17T13:58:33.235104,15.41962162,.009122,51.6039,208.8354,107.4106,253.6878,0,U,39679,999,67167,.19045E-3,.9116E-4,0
ALOS-2,2014-029A,2026-06-17T19:34:19.217280,14.79470141,.0001625,97.9225,265.9697,89.7552,270.3846,0,U,39766,999,65167,.11384E-3,.799E-5,0
YAOGAN-29,2015-069A,2026-06-17T20:27:35.315712,14.83087269,.0002621,98.0021,197.4863,54.0893,306.0563,0,U,41038,999,57072,.85604E-4,.643E-5,0
ASTRO-H (HITOMI),2016-012A,2026-06-17T03:59:38.186880,15.10510640,.00097722,30.9996,74.3210,253.5454,106.4111,0,U,41337,999,56728,.11534482E-3,.2045E-4,0
HXMT (HUIYAN),2017-034A,2026-06-17T12:41:47.428224,15.18478619,.00306289,43.0125,181.1377,149.3559,210.9086,0,U,42758,999,49771,.10687434E-3,.2022E-4,0
SAOCOM 1A,2018-076A,2026-06-17T19:28:02.915040,14.82149308,.000159,97.8877,355.5504,80.4120,279.7273,0,U,43641,999,41619,.76137E-4,.554E-5,0
H-2A R/B,2018-084L,2026-06-17T20:10:26.940576,15.45174755,.0023454,98.8570,47.8730,38.4130,321.8778,0,U,43682,999,42122,.34695E-3,.16521E-3,0
SAOCOM 1B,2020-059A,2026-06-17T20:12:54.516096,14.82146369,.0001622,97.8881,354.6761,82.9106,277.2291,0,U,46265,999,31358,.40108E-5,-.2E-6,0
CSS (TIANHE),2021-035A,2026-06-17T19:24:44.390304,15.60835747,.0007413,41.4699,318.2185,82.3362,277.8318,0,U,48274,999,29326,.24305E-3,.20611E-3,0
COSMOS 2550,2021-056A,2026-06-17T20:55:21.548352,15.33848572,.0008348,67.1435,97.8354,268.6092,91.4106,0,U,48865,999,27882,.2345E-3,.7535E-4,0
CZ-2C R/B,2022-058K,2026-06-16T06:46:43.306752,15.61795532,.00325428,50.1832,168.2256,264.2442,95.4821,0,U,52794,999,22550,.34419339E-3,.30822E-3,0
CZ-2C R/B,2022-132E,2026-06-17T12:49:40.994400,15.71527278,.0016079,97.2897,175.5740,83.1011,277.2081,0,U,54039,999,20600,.36887E-3,.47573E-3,0
GSLV R/B,2022-138AN,2026-06-17T09:14:33.231840,14.97258257,.00229073,87.3807,132.9179,142.9594,217.3224,0,U,54149,999,19884,.1982473E-3,.2336E-4,0
XRISM,2023-137A,2026-06-17T18:49:50.216736,15.12471337,.0007953,31.0033,355.7324,329.7500,30.2679,0,U,57800,999,15295,.22271E-3,.4071E-4,0
ACS3,2024-077B,2026-06-17T18:42:51.268320,13.94046414,.0076618,97.1683,87.4358,63.0470,297.8496,0,U,59588,999,10812,.27551E-1,.37503E-3,0
CZ-8A R/B,2025-231K,2026-06-17T19:41:44.024352,14.30155068,.0116491,50.0057,36.6212,226.2369,132.8861,0,U,66004,999,3503,.48284E-4,-.28E-6,0
SZ-21 MODULE,2025-246C,2026-06-17T12:46:53.918400,15.76430582,.0006303,41.4742,305.1743,350.6233,9.4493,0,U,66515,999,3379,.2382755E-3,.38762E-3,0
