COSMO-SKYMED 1          
1 31598U 07023A   26168.80338220  .00002185  00000+0  19457-3 0  9991
2 31598  97.8848   0.6641 0001343  98.6097 261.5277 14.97101711 29888
COSMOS 2428             
1 31792U 07029A   26168.78085124 -.00000108  00000+0 -32006-4 0  9993
2 31792  70.9369 353.2311 0007128 133.8717 226.2994 14.12928068978238
SL-16 R/B               
1 31793U 07029B   26168.82524028  .00000076  00000+0  63960-4 0  9995
2 31793  70.9769 321.8866 0002341 261.9057 203.9573 14.14855285979532
KORONAS-FOTON           
1 33504U 09003A   26168.46691339  .00008536  00000+0  17544-3 0  9996
2 33504  82.4284 171.9677 0011718 146.5296 213.6696 15.45726740961149
CZ-2C R/B               
1 37731U 11030B   26168.78398483  .00001022  00000+0  13425-3 0  9991
2 37731  97.8655 124.1593 0053013  26.0579  35.4235 14.81472781804916
H-2A R/B                
1 38341U 12025E   26168.82589933  .00002349  00000+0  21322-3 0  9999
2 38341  98.4832 144.0242 0043580 347.2414  12.7698 14.95724052763184
SHIJIAN-16 (SJ-16)      
1 39358U 13057A   26168.84264296  .00000367  00000+0  38417-4 0  9990
2 39358  74.9726 355.4416 0016797 229.3350 130.6379 14.92605658686440
SL-4 R/B                
1 39679U 14021B   26168.58232911  .00009116  00000+0  19045-3 0  9994
2 39679  51.6039 208.8354 0091220 107.4106 253.6878 15.41962162671676
ALOS-2                  
1 39766U 14029A   26168.81550020  .00000799  00000+0  11384-3 0  9995
2 39766  97.9225 265.9697 0001625  89.7552 270.3846 14.79470141651674
YAOGAN-29               
1 41038U 15069A   26168.85249208  .00000643  00000+0  85604-4 0  9997
2 41038  98.0021 197.4863 0002621  54.0893 306.0563 14.83087269570728
ASTRO-H (HITOMI)        
1 41337U 16012A   26168.16641420  .00002045  00000+0  11534-3 0  9992
2 41337  30.9996  74.3210 0009772 253.5454 106.4111 15.10510640567281
HXMT (HUIYAN)           
1 42758U 17034A   26168.52902116  .00002022  00000+0  10687-3 0  9990
2 42758  43.0125 181.1377 0030628 149.3559 210.9086 15.18478619497710
SAOCOM 1A               
1 43641U 18076A   26168.81114485  .00000554  00000+0  76137-4 0  9996
2 43641  97.8877 355.5504 0001590  80.4120 279.7273 14.82149308416191
H-2A R/B                
1 43682U 18084L   26168.84058959  .00016521  00000+0  34695-3 0  9999
2 43682  98.8570  47.8730 0023454  38.4130 321.8778 15.45174755421229
SAOCOM 1B               
1 46265U 20059A   26168.84229764 -.00000020  00000+0  40108-5 0  9994
2 46265  97.8881 354.6761 0001622  82.9106 277.2291 14.82146369313589
CSS (TIANHE)            
1 48274U 21035A   26168.80884711  .00020611  00000+0  24305-3 0  9992
2 48274  41.4699 318.2185 0007413  82.3362 277.8318 15.60835747293261
COSMOS 2550             
1 48865U 21056A   26168.87177718  .00007535  00000+0  23450-3 0  9990
2 48865  67.1435  97.8354 0008348 268.6092  91.4106 15.33848572278825
CZ-2C R/B               
1 52794U 22058K   26167.28244568  .00030822  00000+0  34419-3 0  9993
2 52794  50.1832 168.2256 0032542 264.2442  95.4821 15.61795532225505
CZ-2C R/B               
1 54039U 22132E   26168.53450225  .00047573  00000+0  36887-3 0  9990
2 54039  97.2897 175.5740 0016079  83.1011 277.2081 15.71527278206001
GSLV R/B                
1 54149U 22138AN  26168.38510685  .00002336  00000+0  19825-3 0  9999
2 54149  87.3807 132.9179 0022907 142.9594 217.3224 14.97258257198845
XRISM                   
1 57800U 23137A   26168.78460899  .00004071  00000+0  22271-3 0  9998
2 57800  31.0033 355.7324 0007953 329.7500  30.2679 15.12471337152954
ACS3                    
1 59588U 24077B   26168.77976005  .00037503  00000+0  27551-1 0  9997
2 59588  97.1683  87.4358 0076618  63.0470 297.8496 13.94046414108127
CZ-8A R/B               
1 66004U 25231K   26168.82064843 -.00000028  00000+0  48284-4 0  9997
2 66004  50.0057  36.6212 0116491 226.2369 132.8861 14.30155068 35030
SZ-21 MODULE            
1 66515U 25246C   26168.53256850  .00038762  00000+0  23828-3 0  9990
2 66515  41.4742 305.1743 0006303 350.6233   9.4493 15.76430582 33796
